NORAD_CAT_ID,OBJECT_NAME,OBJECT_TYPE,EPOCH,MEAN_MOTION,ECCENTRICITY,INCLINATION,RA_OF_ASC_NODE,ARG_OF_PERICENTER,MEAN_ANOMALY,BSTAR,MEAN_MOTION_DOT,MEAN_MOTION_DDOT,TLE_LINE0,TLE_LINE1,TLE_LINE2,SEMIMAJOR_AXIS,PERIOD,APOGEE,PERIGEE,DECAYED
49436.0,STARLINK-3049,PAYLOAD,2022-04-28 14:00:01,15.08865484,0.0002003,53.2161,63.8173,33.4474,287.9984,-0.00094874,-0.00015367,0.0,0 STARLINK-3049,1 49436U 21104AE  22118.58334491 -.00015367  00000-0 -94874-3 0  9994,2 49436  53.2161  63.8173 0002003  33.4474 287.9984 15.08865484 26952,6917.802,95.436,541.053,538.2819999999998,0.0
49436.0,STARLINK-3049,PAYLOAD,2022-04-29 14:00:01,15.08822792,0.0001999,53.2166,59.328,35.9549,320.3283,0.00013009,1.782e-05,0.0,0 STARLINK-3049,1 49436U 21104AE  22119.58334491  .00001782  00000-0  13009-3 0  9990,2 49436  53.2166  59.3280 0001999  35.9549 320.3283 15.08822792  3616,6917.933000000001,95.439,541.181,538.415,0.0
49436.0,STARLINK-3049,PAYLOAD,2022-04-29 22:00:00,15.08830466,0.0002019,53.217,57.8319,39.8079,328.0449,-0.00078575,-0.00012769,0.0,0 STARLINK-3049,1 49436U 21104AE  22119.91667824 -.00012769  00000-0 -78575-3 0  9994,2 49436  53.2170  57.8319 0002019  39.8079 328.0449 15.08830466 27153,6917.91,95.438,541.1709999999998,538.378,0.0
49436.0,STARLINK-3049,PAYLOAD,2022-04-30 14:00:01,15.08822702,0.0001975,53.2169,54.8391,38.2164,352.7995,0.00035849,5.419e-05,0.0,0 STARLINK-3049,1 49436U 21104AE  22120.58334491  .00005419  00000-0  35849-3 0  9999,2 49436  53.2169  54.8391 0001975  38.2164 352.7995 15.08822702  3570,6917.933000000001,95.439,541.165,538.432,0.0
49436.0,STARLINK-3049,PAYLOAD,2022-04-30 22:00:00,15.0885928,0.0001927,53.2171,53.3433,38.7556,3.8288,-0.001941,-0.00031063,0.0,0 STARLINK-3049,1 49436U 21104AE  22120.91667824 -.00031063  00000-0 -19410-2 0  9996,2 49436  53.2171  53.3433 0001927  38.7556   3.8288 15.08859280 27319,6917.821,95.436,541.02,538.3530000000002,0.0
49436.0,STARLINK-3049,PAYLOAD,2022-05-01 14:00:01,15.08825306,0.0001823,53.2167,50.3504,35.5014,30.2568,-0.00093289,-0.00015099,0.0,0 STARLINK-3049,1 49436U 21104AE  22121.58334491 -.00015099  00000-0 -93289-3 0  9999,2 49436  53.2167  50.3504 0001823  35.5014  30.2568 15.08825306  3589,6917.925,95.438,541.0509999999998,538.529,0.0
49436.0,STARLINK-3049,PAYLOAD,2022-05-01 22:00:01,15.08830572,0.0001838,53.2168,48.8547,36.0832,41.3034,-0.00082024,-0.00013315,0.0,0 STARLINK-3049,1 49436U 21104AE  22121.91668981 -.00013315  00000-0 -82024-3 0  9994,2 49436  53.2168  48.8547 0001838  36.0832  41.3034 15.08830572 27464,6917.909000000002,95.438,541.0459999999998,538.503,0.0
49436.0,STARLINK-3049,PAYLOAD,2022-05-02 14:00:01,15.08826713,0.0001848,53.2163,45.8618,36.9859,63.4935,0.00082305,0.0001283,0.0,0 STARLINK-3049,1 49436U 21104AE  22122.58334491  .00012830  00000-0  82305-3 0  9995,2 49436  53.2163  45.8618 0001848  36.9859  63.4935 15.08826713  3601,6917.920999999999,95.438,541.064,538.508,0.0
49436.0,STARLINK-3049,PAYLOAD,2022-05-02 22:00:01,15.08843479,0.0001964,53.2164,44.36600000000001,40.42,71.7058,-0.0019696,-0.00031501,0.0,0 STARLINK-3049,1 49436U 21104AE  22122.91668981 -.00031501  00000-0 -19696-2 0  9996,2 49436  53.2164  44.3660 0001964  40.4200  71.7058 15.08843479 27615,6917.87,95.437,541.0930000000002,538.376,0.0
49436.0,STARLINK-3049,PAYLOAD,2022-05-03 14:00:01,15.08820465,0.0001968,53.2161,41.3729,40.5923,94.6414,0.00263,0.00041795,0.0,0 STARLINK-3049,1 49436U 21104AE  22123.58334491  .00041795  00000-0  26300-2 0  9990,2 49436  53.2161  41.3729 0001968  40.5923  94.6414 15.08820465 27713,6917.94,95.439,541.1669999999998,538.444,0.0
49436.0,STARLINK-3049,PAYLOAD,2022-05-03 22:00:00,15.08875522,0.0002053,53.2162,39.8772,41.7974,105.0205,-0.0030284,-0.00048211,0.0,0 STARLINK-3049,1 49436U 21104AE  22123.91667824 -.00048211  00000-0 -30284-2 0  9994,2 49436  53.2162  39.8772 0002053  41.7974 105.0205 15.08875522  3600,6917.772,95.435,541.057,538.217,0.0
49436.0,STARLINK-3049,PAYLOAD,2022-05-04 06:00:02,15.08820082,0.0002173,53.2159,38.3817,36.3272,122.1786,0.0030423,0.00048437,0.0,0 STARLINK-3049,1 49436U 21104AE  22124.25002315  .00048437  00000-0  30423-2 0  9993,2 49436  53.2159  38.3817 0002173  36.3272 122.1786 15.08820082 27818,6917.941,95.439,541.31,538.303,0.0
49436.0,STARLINK-3049,PAYLOAD,2022-05-04 14:00:01,15.08837847,0.0002017,53.2161,36.8836,40.747,129.2932,0.0012185,0.00019157,0.0,0 STARLINK-3049,1 49436U 21104AE  22124.58334491  .00019157  00000-0  12185-2 0  9994,2 49436  53.2161  36.8836 0002017  40.7470 129.2932 15.08837847  3565,6917.887,95.438,541.1469999999998,538.357,0.0
49436.0,STARLINK-3049,PAYLOAD,2022-05-04 20:00:01,15.08862792,0.0002107,53.2163,35.7616,44.2014,44.5985,-0.0022096,-0.00035305,0.0,0 STARLINK-3049,1 49436U 21104AE  22124.83335648 -.00035305  00000-0 -22096-2 0  9994,2 49436  53.2163  35.7616 0002107  44.2014  44.5985 15.08862792 27902,6917.811,95.436,541.133,538.2180000000002,0.0
49436.0,STARLINK-3049,PAYLOAD,2022-05-04 22:00:01,15.08850734,0.000217,53.2163,35.38800000000001,43.1408,138.5659,-0.0014199,-0.00022822,0.0,0 STARLINK-3049,1 49436U 21104AE  22124.91668981 -.00022822  00000-0 -14199-2 0  9997,2 49436  53.2163  35.3880 0002170  43.1408 138.5659 15.08850734  3613,6917.848000000001,95.437,541.214,538.211,0.0
49436.0,STARLINK-3049,PAYLOAD,2022-05-05 14:00:01,15.0880564,0.0002066,53.2163,32.3943,42.1064,162.7508,0.0031498,0.00050151,0.0,0 STARLINK-3049,1 49436U 21104AE  22125.58334491  .00050151  00000-0  31498-2 0  9992,2 49436  53.2163  32.3943 0002066  42.1064 162.7508 15.08805640  3619,6917.985,95.44,541.28,538.4209999999998,0.0
49436.0,STARLINK-3049,PAYLOAD,2022-05-05 16:00:00,15.08809531,0.000206,53.2164,32.02,43.5529,254.1966,0.0034610999999999,0.00055181,0.0,0 STARLINK-3049,1 49436U 21104AE  22125.66667824  .00055181  00000-0  34611-2 0  9998,2 49436  53.2164  32.0200 0002060  43.5529 254.1966 15.08809531 28027,6917.974,95.439,541.264,538.413,0.0
49436.0,STARLINK-3049,PAYLOAD,2022-05-05 22:00:00,15.08858352,0.0002182,53.2165,30.899,41.8325,174.593,-0.0030845,-0.0004907,0.0,0 STARLINK-3049,1 49436U 21104AE  22125.91667824 -.00049070  00000-0 -30845-2 0  9993,2 49436  53.2165  30.8990 0002182  41.8325 174.5930 15.08858352  3563,6917.824000000001,95.436,541.1990000000002,538.18,0.0
49436.0,STARLINK-3049,PAYLOAD,2022-05-06 08:00:01,15.08835317,0.0002208,53.2164,29.0286,38.0826,282.8282,-0.001224,-0.00019714,0.0,0 STARLINK-3049,1 49436U 21104AE  22126.33334491 -.00019714  00000-0 -12240-2 0  9992,2 49436  53.2164  29.0286 0002208  38.0826 282.8282 15.08835317 28121,6917.895,95.438,541.2869999999998,538.232,0.0
49436.0,STARLINK-3049,PAYLOAD,2022-05-06 14:00:01,15.08805057,0.0002074,53.2167,27.905,41.8988,197.7061,0.0032243,0.00051352,0.0,0 STARLINK-3049,1 49436U 21104AE  22126.58334491  .00051352  00000-0  32243-2 0  9996,2 49436  53.2167  27.9050 0002074  41.8988 197.7061 15.08805057  3560,6917.986999999999,95.44,541.2869999999998,538.4169999999998,0.0
49436.0,STARLINK-3049,PAYLOAD,2022-05-06 22:00:00,15.08848167,0.0002204,53.2171,26.4089,41.6523,209.5275,-0.00082377,-0.00013378,0.0,0 STARLINK-3049,1 49436U 21104AE  22126.91667824 -.00013378  00000-0 -82377-3 0  9994,2 49436  53.2171  26.4089 0002204  41.6523 209.5275 15.08848167 28216,6917.855,95.437,541.245,538.196,0.0
49436.0,STARLINK-3049,PAYLOAD,2022-05-07 14:00:01,15.08814889,0.000201,53.2168,23.4157,42.3952,232.0047,0.0024477,0.00038856,0.0,0 STARLINK-3049,1 49436U 21104AE  22127.58334491  .00038856  00000-0  24477-2 0  9991,2 49436  53.2168  23.4157 0002010  42.3952 232.0047 15.08814889  3602,6917.956999999999,95.439,541.2130000000002,538.432,0.0
49436.0,STARLINK-3049,PAYLOAD,2022-05-07 22:00:00,15.08848205,0.0002122,53.2169,21.9207,40.7751,245.2057,-0.00077844,-0.00012659,0.0,0 STARLINK-3049,1 49436U 21104AE  22127.91667824 -.00012659  00000-0 -77844-3 0  9999,2 49436  53.2169  21.9207 0002122  40.7751 245.2057 15.08848205 28361,6917.855,95.437,541.188,538.252,0.0
49436.0,STARLINK-3049,PAYLOAD,2022-05-08 14:00:01,15.08806652,0.0001918,53.2167,18.9265,41.9219,267.2643,0.0031662,0.00050417,0.0,0 STARLINK-3049,1 49436U 21104AE  22128.58334491  .00050417  00000-0  31662-2 0  9993,2 49436  53.2167  18.9265 0001918  41.9219 267.2643 15.08806652  3563,6917.982,95.44,541.174,538.52,0.0
49436.0,STARLINK-3049,PAYLOAD,2022-05-08 22:00:00,15.08845371,0.0002066,53.2166,17.4316,40.1967,280.5658,-0.00077532,-0.00012608,0.0,0 STARLINK-3049,1 49436U 21104AE  22128.91667824 -.00012608  00000-0 -77532-3 0  9998,2 49436  53.2166  17.4316 0002066  40.1967 280.5658 15.08845371  3564,6917.864000000001,95.437,541.158,538.3,0.0
49436.0,STARLINK-3049,PAYLOAD,2022-05-09 06:00:00,15.08862915,0.0002077,53.2162,15.9352,37.4633,294.8896,-0.0019232,-0.00030786,0.0,0 STARLINK-3049,1 49436U 21104AE  22129.25001157 -.00030786  00000-0 -19232-2 0  9996,2 49436  53.2162  15.9352 0002077  37.4633 294.8896 15.08862915 28566,6917.81,95.436,541.112,538.239,0.0
49436.0,STARLINK-3049,PAYLOAD,2022-05-09 14:00:01,15.08812249,0.0001857,53.2163,14.4373,42.5372,301.4994,0.0029118,0.00046323,0.0,0 STARLINK-3049,1 49436U 21104AE  22129.58335648  .00046323  00000-0  29118-2 0  9993,2 49436  53.2163  14.4373 0001857  42.5372 301.4994 15.08812249  3568,6917.965,95.439,541.115,538.5459999999998,0.0
49436.0,STARLINK-3049,PAYLOAD,2022-05-09 22:00:00,15.08844272,0.0002031,53.2162,12.9426,40.0327,315.5209,-0.00069047,-0.00011262,0.0,0 STARLINK-3049,1 49436U 21104AE  22129.91667824 -.00011262  00000-0 -69047-3 0  9996,2 49436  53.2162  12.9426 0002031  40.0327 315.5209 15.08844272  3574,6917.8669999999975,95.437,541.137,538.327,0.0
49436.0,STARLINK-3049,PAYLOAD,2022-05-10 08:00:01,15.08864963,0.0002057,53.2161,11.0715,41.4576,58.5871,-0.0040784,-0.0006466,0.0,0 STARLINK-3049,1 49436U 21104AE  22130.33334491 -.00064660  00000-0 -40784-2 0  9991,2 49436  53.2161  11.0715 0002057  41.4576  58.5871 15.08864963 28736,6917.804,95.436,541.092,538.246,0.0
